IRIDIUM 7 [-]           
1 24793U 97020B   24062.90229390  .00000555  00000+0  18792-3 0  9995
2 24793  86.4004  14.3157 0001965  90.1933 269.9488 14.35099844404287
IRIDIUM 5 [-]           
1 24795U 97020D   24062.89996565  .00004027  00000+0  39179-3 0  9990
2 24795  86.3912 299.4992 0125673  20.6784 339.9459 14.86418404415274
IRIDIUM 4 [-]           
1 24796U 97020E   24062.90763948  .00000637  00000+0  21267-3 0  9992
2 24796  86.4003  11.5065 0002088  83.6851 276.4584 14.36014644404814
IRIDIUM 914 [-]         
1 24836U 97030A   24062.94420687  .00000702  00000+0  21751-3 0  9993
2 24836  86.3967  21.4688 0002280  38.2283 321.9077 14.39852535401392
IRIDIUM 16 [-]          
1 24841U 97030F   24062.90348575  .00000660  00000+0  21296-3 0  9997
2 24841  86.4022  43.1865 0003186 128.6476 231.5007 14.37736451399260
IRIDIUM 911 [-]         
1 24842U 97030G   24062.90972839  .00000853  00000+0  23217-3 0  9993
2 24842  86.4450  42.4001 0012639 221.8645 138.1592 14.46327598406939
IRIDIUM 17 [-]          
1 24870U 97034B   24062.94467445  .00000549  00000+0  17928-3 0  9998
2 24870  86.3902  72.8135 0003794 101.3137 258.8487 14.36826189395890
IRIDIUM 920 [-]         
1 24871U 97034C   24063.22760441  .00000647  00000+0  19683-3 0  9992
2 24871  86.3943  53.0057 0011133 184.2273 175.8834 14.40552703399012
